[{"OBJECT_NAME":"STARLINK-6083","OBJECT_ID":"2023-046S","EPOCH":"2026-01-09T23:42:41.043456","MEAN_MOTION":15.02534259,"ECCENTRICITY":9.826e-5,"INCLINATION":43.0044,"RA_OF_ASC_NODE":117.7527,"ARG_OF_PERICENTER":272.2702,"MEAN_ANOMALY":87.8028,"EPHEMERIS_TYPE":0,"CLASSIFICATION_TYPE":"U","NORAD_CAT_ID":56109,"ELEMENT_SET_NO":999,"REV_AT_EPOCH":15323,"BSTAR":2.6920808e-5,"MEAN_MOTION_DOT":1.6e-6,"MEAN_MOTION_DDOT":0},{"OBJECT_NAME":"STARLINK-6082","OBJECT_ID":"2023-046T","EPOCH":"2026-01-10T14:12:13.505472","MEAN_MOTION":15.02536181,"ECCENTRICITY":0.00012644,"INCLINATION":43.0039,"RA_OF_ASC_NODE":114.546,"ARG_OF_PERICENTER":268.5595,"MEAN_ANOMALY":91.5103,"EPHEMERIS_TYPE":0,"CLASSIFICATION_TYPE":"U","NORAD_CAT_ID":56110,"ELEMENT_SET_NO":999,"REV_AT_EPOCH":15332,"BSTAR":4.111793e-5,"MEAN_MOTION_DOT":3.52e-6,"MEAN_MOTION_DDOT":0},{"OBJECT_NAME":"STARLINK-6084","OBJECT_ID":"2023-046U","EPOCH":"2026-01-10T23:17:50.028288","MEAN_MOTION":15.02525848,"ECCENTRICITY":0.00013023,"INCLINATION":43.0039,"RA_OF_ASC_NODE":112.2225,"ARG_OF_PERICENTER":268.5329,"MEAN_ANOMALY":91.5364,"EPHEMERIS_TYPE":0,"CLASSIFICATION_TYPE":"U","NORAD_CAT_ID":56111,"ELEMENT_SET_NO":999,"REV_AT_EPOCH":15338,"BSTAR":3.3382286e-5,"MEAN_MOTION_DOT":2.47e-6,"MEAN_MOTION_DDOT":0},{"OBJECT_NAME":"STARLINK-6080","OBJECT_ID":"2023-046V","EPOCH":"2026-01-10T23:25:49.808352","MEAN_MOTION":15.02541861,"ECCENTRICITY":1.78e-5,"INCLINATION":43.0033,"RA_OF_ASC_NODE":112.2662,"ARG_OF_PERICENTER":163.5227,"MEAN_ANOMALY":196.5622,"EPHEMERIS_TYPE":0,"CLASSIFICATION_TYPE":"U","NORAD_CAT_ID":56112,"ELEMENT_SET_NO":999,"REV_AT_EPOCH":15338,"BSTAR":-0.00010380453,"MEAN_MOTION_DOT":-1.605e-5,"MEAN_MOTION_DDOT":0},{"OBJECT_NAME":"STARLINK-6113","OBJECT_ID":"2023-046W","EPOCH":"2026-01-10T23:11:26.407104","MEAN_MOTION":15.02544149,"ECCENTRICITY":0.00012775,"INCLINATION":43.0049,"RA_OF_ASC_NODE":112.1937,"ARG_OF_PERICENTER":265.0603,"MEAN_ANOMALY":95.0093,"EPHEMERIS_TYPE":0,"CLASSIFICATION_TYPE":"U","NORAD_CAT_ID":56113,"ELEMENT_SET_NO":999,"REV_AT_EPOCH":15338,"BSTAR":-9.0681953e-5,"MEAN_MOTION_DOT":-1.429e-5,"MEAN_MOTION_DDOT":0},{"OBJECT_NAME":"STARLINK-6101","OBJECT_ID":"2023-046Y","EPOCH":"2026-01-10T23:05:02.419584","MEAN_MOTION":15.02534291,"ECCENTRICITY":0.00014366,"INCLINATION":43.0035,"RA_OF_ASC_NODE":112.159,"ARG_OF_PERICENTER":268.3916,"MEAN_ANOMALY":91.6762,"EPHEMERIS_TYPE":0,"CLASSIFICATION_TYPE":"U","NORAD_CAT_ID":56115,"ELEMENT_SET_NO":999,"REV_AT_EPOCH":15338,"BSTAR":2.1248672e-5,"MEAN_MOTION_DOT":8.3e-7,"MEAN_MOTION_DDOT":0},{"OBJECT_NAME":"STARLINK-6114","OBJECT_ID":"2023-046Z","EPOCH":"2026-01-10T23:21:01.813824","MEAN_MOTION":15.02530386,"ECCENTRICITY":0.00012998,"INCLINATION":43.0039,"RA_OF_ASC_NODE":112.2434,"ARG_OF_PERICENTER":268.2635,"MEAN_ANOMALY":91.8058,"EPHEMERIS_TYPE":0,"CLASSIFICATION_TYPE":"U","NORAD_CAT_ID":56116,"ELEMENT_SET_NO":999,"REV_AT_EPOCH":15338,"BSTAR":9.638948e-6,"MEAN_MOTION_DOT":-7.3e-7,"MEAN_MOTION_DDOT":0},{"OBJECT_NAME":"STARLINK-6107","OBJECT_ID":"2023-046AA","EPOCH":"2026-01-10T13:13:38.442432","MEAN_MOTION":15.02531988,"ECCENTRICITY":0.00015182,"INCLINATION":43.0048,"RA_OF_ASC_NODE":102.1243,"ARG_OF_PERICENTER":272.1471,"MEAN_ANOMALY":87.9197,"EPHEMERIS_TYPE":0,"CLASSIFICATION_TYPE":"U","NORAD_CAT_ID":56117,"ELEMENT_SET_NO":999,"REV_AT_EPOCH":15346,"BSTAR":-1.1388424e-5,"MEAN_MOTION_DOT":-3.58e-6,"MEAN_MOTION_DDOT":0},{"OBJECT_NAME":"STARLINK-6091","OBJECT_ID":"2023-046AC","EPOCH":"2026-01-10T23:02:23.777088","MEAN_MOTION":15.02532689,"ECCENTRICITY":0.00012382,"INCLINATION":43.0034,"RA_OF_ASC_NODE":100.0289,"ARG_OF_PERICENTER":266.8918,"MEAN_ANOMALY":93.1783,"EPHEMERIS_TYPE":0,"CLASSIFICATION_TYPE":"U","NORAD_CAT_ID":56119,"ELEMENT_SET_NO":999,"REV_AT_EPOCH":15352,"BSTAR":-3.7346726e-5,"MEAN_MOTION_DOT":-7.08e-6,"MEAN_MOTION_DDOT":0},{"OBJECT_NAME":"STARLINK-6079","OBJECT_ID":"2023-046AD","EPOCH":"2026-01-10T23:13:34.589280","MEAN_MOTION":15.0253578,"ECCENTRICITY":0.00010308,"INCLINATION":43.005,"RA_OF_ASC_NODE":100.091,"ARG_OF_PERICENTER":277.3631,"MEAN_ANOMALY":82.7094,"EPHEMERIS_TYPE":0,"CLASSIFICATION_TYPE":"U","NORAD_CAT_ID":56120,"ELEMENT_SET_NO":999,"REV_AT_EPOCH":15352,"BSTAR":1.1926503e-5,"MEAN_MOTION_DOT":-4.2e-7,"MEAN_MOTION_DDOT":0},{"OBJECT_NAME":"STARLINK-6092","OBJECT_ID":"2023-046AE","EPOCH":"2026-01-10T23:07:09.879456","MEAN_MOTION":15.02547204,"ECCENTRICITY":0.00013532,"INCLINATION":43.0028,"RA_OF_ASC_NODE":100.0528,"ARG_OF_PERICENTER":270.475,"MEAN_ANOMALY":89.5937,"EPHEMERIS_TYPE":0,"CLASSIFICATION_TYPE":"U","NORAD_CAT_ID":56121,"ELEMENT_SET_NO":999,"REV_AT_EPOCH":15352,"BSTAR":0.0001030283,"MEAN_MOTION_DOT":1.189e-5,"MEAN_MOTION_DDOT":0},{"OBJECT_NAME":"STARLINK-6094","OBJECT_ID":"2023-046AF","EPOCH":"2026-01-10T23:13:01.898112","MEAN_MOTION":15.02532049,"ECCENTRICITY":0.00012382,"INCLINATION":43.0037,"RA_OF_ASC_NODE":112.1987,"ARG_OF_PERICENTER":268.7362,"MEAN_ANOMALY":91.3338,"EPHEMERIS_TYPE":0,"CLASSIFICATION_TYPE":"U","NORAD_CAT_ID":56122,"ELEMENT_SET_NO":999,"REV_AT_EPOCH":15338,"BSTAR":5.5269682e-5,"MEAN_MOTION_DOT":5.43e-6,"MEAN_MOTION_DDOT":0},{"OBJECT_NAME":"STARLINK-6115","OBJECT_ID":"2023-046AH","EPOCH":"2026-01-10T13:15:14.276448","MEAN_MOTION":15.02533248,"ECCENTRICITY":0.00013735,"INCLINATION":43.0051,"RA_OF_ASC_NODE":102.1308,"ARG_OF_PERICENTER":271.7691,"MEAN_ANOMALY":88.2994,"EPHEMERIS_TYPE":0,"CLASSIFICATION_TYPE":"U","NORAD_CAT_ID":56123,"ELEMENT_SET_NO":999,"REV_AT_EPOCH":15346,"BSTAR":8.73138e-7,"MEAN_MOTION_DOT":-1.92e-6,"MEAN_MOTION_DDOT":0},{"OBJECT_NAME":"STARLINK-6126","OBJECT_ID":"2023-046AJ","EPOCH":"2026-01-10T23:08:44.907360","MEAN_MOTION":15.02560982,"ECCENTRICITY":0.0001474,"INCLINATION":43.0044,"RA_OF_ASC_NODE":100.0587,"ARG_OF_PERICENTER":272.6677,"MEAN_ANOMALY":87.3997,"EPHEMERIS_TYPE":0,"CLASSIFICATION_TYPE":"U","NORAD_CAT_ID":56124,"ELEMENT_SET_NO":999,"REV_AT_EPOCH":15352,"BSTAR":0.00018671689,"MEAN_MOTION_DOT":2.321e-5,"MEAN_MOTION_DDOT":0},{"OBJECT_NAME":"STARLINK-6119","OBJECT_ID":"2023-046AK","EPOCH":"2026-01-10T22:54:23.820768","MEAN_MOTION":15.02535134,"ECCENTRICITY":0.00011649,"INCLINATION":43.0035,"RA_OF_ASC_NODE":99.987,"ARG_OF_PERICENTER":275.7168,"MEAN_ANOMALY":84.3542,"EPHEMERIS_TYPE":0,"CLASSIFICATION_TYPE":"U","NORAD_CAT_ID":56125,"ELEMENT_SET_NO":999,"REV_AT_EPOCH":15352,"BSTAR":4.2190063e-5,"MEAN_MOTION_DOT":3.66e-6,"MEAN_MOTION_DDOT":0},{"OBJECT_NAME":"STARLINK-6124","OBJECT_ID":"2023-046AL","EPOCH":"2026-01-10T13:10:26.580864","MEAN_MOTION":15.02531523,"ECCENTRICITY":0.00013263,"INCLINATION":43.0038,"RA_OF_ASC_NODE":102.0985,"ARG_OF_PERICENTER":269.9972,"MEAN_ANOMALY":90.0718,"EPHEMERIS_TYPE":0,"CLASSIFICATION_TYPE":"U","NORAD_CAT_ID":56126,"ELEMENT_SET_NO":999,"REV_AT_EPOCH":15346,"BSTAR":-3.3888646e-5,"MEAN_MOTION_DOT":-6.61e-6,"MEAN_MOTION_DDOT":0}]
