STARLINK-6083           
1 56109U 23046S   26009.98797504  .00000160  00000+0  26921-4 0  9992
2 56109  43.0044 117.7527 0000982 272.2702  87.8028 15.02534259153232
STARLINK-6082           
1 56110U 23046T   26010.59182298  .00000352  00000+0  41118-4 0  9999
2 56110  43.0039 114.5460 0001264 268.5595  91.5103 15.02536181153323
STARLINK-6084           
1 56111U 23046U   26010.97071792  .00000247  00000+0  33382-4 0  9995
2 56111  43.0039 112.2225 0001302 268.5329  91.5364 15.02525848153389
STARLINK-6080           
1 56112U 23046V   26010.97627093 -.00001605  00000+0 -10380-3 0  9990
2 56112  43.0033 112.2662 0000178 163.5227 196.5622 15.02541861153386
STARLINK-6113           
1 56113U 23046W   26010.96627786 -.00001429  00000+0 -90682-4 0  9997
2 56113  43.0049 112.1937 0001277 265.0603  95.0093 15.02544149153382
STARLINK-6101           
1 56115U 23046Y   26010.96183356  .00000083  00000+0  21249-4 0  9995
2 56115  43.0035 112.1590 0001436 268.3916  91.6762 15.02534291153386
STARLINK-6114           
1 56116U 23046Z   26010.97293766 -.00000073  00000+0  96389-5 0  9992
2 56116  43.0039 112.2434 0001299 268.2635  91.8058 15.02530386153384
STARLINK-6107           
1 56117U 23046AA  26010.55113938 -.00000358  00000+0 -11388-4 0  9991
2 56117  43.0048 102.1243 0001518 272.1471  87.9197 15.02531988153465
STARLINK-6091           
1 56119U 23046AC  26010.95999742 -.00000708  00000+0 -37347-4 0  9994
2 56119  43.0034 100.0289 0001238 266.8918  93.1783 15.02532689153520
STARLINK-6079           
1 56120U 23046AD  26010.96776145 -.00000042  00000+0  11927-4 0  9993
2 56120  43.0050 100.0910 0001030 277.3631  82.7094 15.02535780153524
STARLINK-6092           
1 56121U 23046AE  26010.96330879  .00001189  00000+0  10303-3 0  9992
2 56121  43.0028 100.0528 0001353 270.4750  89.5937 15.02547204153524
STARLINK-6094           
1 56122U 23046AF  26010.96738308  .00000543  00000+0  55270-4 0  9998
2 56122  43.0037 112.1987 0001238 268.7362  91.3338 15.02532049153380
STARLINK-6115           
1 56123U 23046AH  26010.55224857 -.00000192  00000+0  87314-6 0  9990
2 56123  43.0051 102.1308 0001373 271.7691  88.2994 15.02533248153466
STARLINK-6126           
1 56124U 23046AJ  26010.96440865  .00002321  00000+0  18672-3 0  9998
2 56124  43.0044 100.0587 0001474 272.6677  87.3997 15.02560982153526
STARLINK-6119           
1 56125U 23046AK  26010.95444237  .00000366  00000+0  42190-4 0  9995
2 56125  43.0035  99.9870 0001164 275.7168  84.3542 15.02535134153527
STARLINK-6124           
1 56126U 23046AL  26010.54891876 -.00000661  00000+0 -33889-4 0  9991
2 56126  43.0038 102.0985 0001326 269.9972  90.0718 15.02531523153462
